ONEWEB-0538             
1 56047U 23043B   23272.91667824 -.01406968  00000+0 -27753+0 0  9991
2 56047  87.0379  70.2004 0004022  54.0668 341.1180 14.66147497 28982
ONEWEB-0546             
1 56048U 23043C   23272.91667824 -.01378738  00000+0 -28170+0 0  9999
2 56048  87.0423  70.1142 0002480 130.2501 356.5475 14.64518957 28982
ONEWEB-0547             
1 56049U 23043D   23272.47347895  .00000116  00000+0  24864-3 0  9993
2 56049  87.9176  81.4212 0001758  64.1303 296.0012 13.21822124 27218
ONEWEB-0548             
1 56050U 23043E   23272.91667824 -.01458932  00000+0 -28317+0 0  9990
2 56050  87.0308  70.2332 0002848 129.1696 112.6762 14.67001809 28974
ONEWEB-0549             
1 56051U 23043F   23272.54288375  .00000088  00000+0  18202-3 0  9998
2 56051  87.9173  81.4107 0001748  83.2992 276.8340 13.21825385 28130
ONEWEB-0550             
1 56052U 23043G   23272.53026551  .00000064  00000+0  12267-3 0  9993
2 56052  87.9150  81.4233 0001796  89.9526 270.1814 13.21825207 27220
ONEWEB-0552             
1 56054U 23043J   23272.75103490  .00000077  00000+0  15411-3 0  9995
2 56054  87.9182  81.3904 0002217  94.2830 265.8557 13.21826970 28164
